{
  "type": "FeatureCollection",
  "features": [
    {
      "type": "Feature",
      "properties": {
        "norad_id": 26766,
        "name": "INTELSAT 10 (IS-10)",
        "group": "intelsat",
        "lat": 7.721979805264651,
        "lon": 124.35646282993117,
        "alt_km": 36154.08443647595,
        "timestamp": "2025-12-09T16:56:36.247669+00:00",
        "meta_object_name": "INTELSAT 10 (IS-10)",
        "meta_object_id": "2001-019A",
        "meta_epoch": "2025-12-09T10:09:51.789312",
        "meta_mean_motion": 0.99078995,
        "meta_eccentricity": 0.0007841,
        "meta_inclination": 8.6222,
        "meta_ra_of_asc_node": 61.19,
        "meta_arg_of_pericenter": 222.7814,
        "meta_mean_anomaly": 99.9246,
        "meta_ephemeris_type": 0,
        "meta_classification_type": "U",
        "meta_norad_cat_id": 26766,
        "meta_element_set_no": 999,
        "meta_rev_at_epoch": 4369,
        "meta_bstar": 0,
        "meta_mean_motion_dot": -2.83e-06,
        "meta_mean_motion_ddot": 0,
        "tle_line1": "1 26766U 01019A   25343.42351608 -.00000283  00000+0  00000+0 0  9996",
        "tle_line2": "2 26766   8.6222  61.1900 0007841 222.7814  99.9246  0.99078995 43699"
      },
      "geometry": {
        "type": "Point",
        "coordinates": [
          124.35646282993117,
          7.721979805264651
        ]
      }
    },
    {
      "type": "Feature",
      "properties": {
        "norad_id": 26900,
        "name": "INTELSAT 902 (IS-902)",
        "group": "intelsat",
        "lat": -2.7132317382450726,
        "lon": -77.43405801372897,
        "alt_km": 35772.44021103642,
        "timestamp": "2025-12-09T16:56:36.247694+00:00",
        "meta_object_name": "INTELSAT 902 (IS-902)",
        "meta_object_id": "2001-039A",
        "meta_epoch": "2025-12-01T16:59:59.311968",
        "meta_mean_motion": 1.00270327,
        "meta_eccentricity": 0.00043097,
        "meta_inclination": 5.6187,
        "meta_ra_of_asc_node": 74.2002,
        "meta_arg_of_pericenter": 175.119,
        "meta_mean_anomaly": 26.3816,
        "meta_ephemeris_type": 0,
        "meta_classification_type": "U",
        "meta_norad_cat_id": 26900,
        "meta_element_set_no": 999,
        "meta_rev_at_epoch": 8871,
        "meta_bstar": 0,
        "meta_mean_motion_dot": -2.63e-06,
        "meta_mean_motion_ddot": 0,
        "tle_line1": "1 26900U 01039A   25335.70832537 -.00000263  00000+0  00000+0 0  9993",
        "tle_line2": "2 26900   5.6187  74.2002 0004309 175.1190  26.3816  1.00270327 88713"
      },
      "geometry": {
        "type": "Point",
        "coordinates": [
          -77.43405801372897,
          -2.7132317382450726
        ]
      }
    },
    {
      "type": "Feature",
      "properties": {
        "norad_id": 27380,
        "name": "INTELSAT 904 (IS-904)",
        "group": "intelsat",
        "lat": -4.941451498119835,
        "lon": -58.844002315958036,
        "alt_km": 35780.1963849796,
        "timestamp": "2025-12-09T16:56:36.247710+00:00",
        "meta_object_name": "INTELSAT 904 (IS-904)",
        "meta_object_id": "2002-007A",
        "meta_epoch": "2025-12-09T03:09:01.481760",
        "meta_mean_motion": 1.00273059,
        "meta_eccentricity": 0.0001528,
        "meta_inclination": 6.446,
        "meta_ra_of_asc_node": 71.4727,
        "meta_arg_of_pericenter": 214.649,
        "meta_mean_anomaly": 167.7401,
        "meta_ephemeris_type": 0,
        "meta_classification_type": "U",
        "meta_norad_cat_id": 27380,
        "meta_element_set_no": 999,
        "meta_rev_at_epoch": 4986,
        "meta_bstar": 0,
        "meta_mean_motion_dot": -2.25e-06,
        "meta_mean_motion_ddot": 0,
        "tle_line1": "1 27380U 02007A   25343.13126715 -.00000225  00000+0  00000+0 0  9990",
        "tle_line2": "2 27380   6.4460  71.4727 0001528 214.6490 167.7401  1.00273059 49862"
      },
      "geometry": {
        "type": "Point",
        "coordinates": [
          -58.844002315958036,
          -4.941451498119835
        ]
      }
    },
    {
      "type": "Feature",
      "properties": {
        "norad_id": 27426,
        "name": "DIRECTV 5 (TEMPO 1)",
        "group": "intelsat",
        "lat": 2.502799539016832,
        "lon": -137.22613306625385,
        "alt_km": 35776.33737191745,
        "timestamp": "2025-12-09T16:56:36.247724+00:00",
        "meta_object_name": "DIRECTV 5 (TEMPO 1)",
        "meta_object_id": "2002-023A",
        "meta_epoch": "2025-12-09T12:28:39.653760",
        "meta_mean_motion": 1.00272054,
        "meta_eccentricity": 0.0003908,
        "meta_inclination": 4.3941,
        "meta_ra_of_asc_node": 77.689,
        "meta_arg_of_pericenter": 200.7432,
        "meta_mean_anomaly": 237.1271,
        "meta_ephemeris_type": 0,
        "meta_classification_type": "U",
        "meta_norad_cat_id": 27426,
        "meta_element_set_no": 999,
        "meta_rev_at_epoch": 8622,
        "meta_bstar": 0,
        "meta_mean_motion_dot": -5.5e-07,
        "meta_mean_motion_ddot": 0,
        "tle_line1": "1 27426U 02023A   25343.51990340 -.00000055  00000+0  00000+0 0  9995",
        "tle_line2": "2 27426   4.3941  77.6890 0003908 200.7432 237.1271  1.00272054 86221"
      },
      "geometry": {
        "type": "Point",
        "coordinates": [
          -137.22613306625385,
          2.502799539016832
        ]
      }
    },
    {
      "type": "Feature",
      "properties": {
        "norad_id": 27438,
        "name": "INTELSAT 905 (IS-905)",
        "group": "intelsat",
        "lat": 5.224458482082087,
        "lon": -164.22869958710197,
        "alt_km": 35780.8638009369,
        "timestamp": "2025-12-09T16:56:36.247737+00:00",
        "meta_object_name": "INTELSAT 905 (IS-905)",
        "meta_object_id": "2002-027A",
        "meta_epoch": "2025-12-09T11:59:00.274272",
        "meta_mean_motion": 1.00271823,
        "meta_eccentricity": 0.0002847,
        "meta_inclination": 6.2778,
        "meta_ra_of_asc_node": 72.0923,
        "meta_arg_of_pericenter": 191.5585,
        "meta_mean_anomaly": 217.3829,
        "meta_ephemeris_type": 0,
        "meta_classification_type": "U",
        "meta_norad_cat_id": 27438,
        "meta_element_set_no": 999,
        "meta_rev_at_epoch": 4946,
        "meta_bstar": 0,
        "meta_mean_motion_dot": 9.5e-07,
        "meta_mean_motion_ddot": 0,
        "tle_line1": "1 27438U 02027A   25343.49930873  .00000095  00000+0  00000+0 0  9997",
        "tle_line2": "2 27438   6.2778  72.0923 0002847 191.5585 217.3829  1.00271823 49463"
      },
      "geometry": {
        "type": "Point",
        "coordinates": [
          -164.22869958710197,
          5.224458482082087
        ]
      }
    },
    {
      "type": "Feature",
      "properties": {
        "norad_id": 27445,
        "name": "GALAXY 3C (G-3C)",
        "group": "intelsat",
        "lat": 1.2288495873700325,
        "lon": -121.97363988427321,
        "alt_km": 35783.719044078905,
        "timestamp": "2025-12-09T16:56:36.247750+00:00",
        "meta_object_name": "GALAXY 3C (G-3C)",
        "meta_object_id": "2002-030A",
        "meta_epoch": "2025-12-09T12:22:29.345088",
        "meta_mean_motion": 1.00271037,
        "meta_eccentricity": 0.0001139,
        "meta_inclination": 3.2564,
        "meta_ra_of_asc_node": 80.5364,
        "meta_arg_of_pericenter": 97.8512,
        "meta_mean_anomaly": 350.8775,
        "meta_ephemeris_type": 0,
        "meta_classification_type": "U",
        "meta_norad_cat_id": 27445,
        "meta_element_set_no": 999,
        "meta_rev_at_epoch": 4459,
        "meta_bstar": 0,
        "meta_mean_motion_dot": -1.5e-06,
        "meta_mean_motion_ddot": 0,
        "tle_line1": "1 27445U 02030A   25343.51561742 -.00000150  00000+0  00000+0 0  9990",
        "tle_line2": "2 27445   3.2564  80.5364 0001139  97.8512 350.8775  1.00271037 44594"
      },
      "geometry": {
        "type": "Point",
        "coordinates": [
          -121.97363988427321,
          1.2288495873700325
        ]
      }
    },
    {
      "type": "Feature",
      "properties": {
        "norad_id": 27513,
        "name": "INTELSAT 906 (IS-906)",
        "group": "intelsat",
        "lat": -3.276690809409958,
        "lon": 37.15162296963876,
        "alt_km": 35803.90271625848,
        "timestamp": "2025-12-09T16:56:36.247762+00:00",
        "meta_object_name": "INTELSAT 906 (IS-906)",
        "meta_object_id": "2002-041A",
        "meta_epoch": "2025-12-09T08:44:29.355360",
        "meta_mean_motion": 1.00270946,
        "meta_eccentricity": 0.0006101,
        "meta_inclination": 5.3202,
        "meta_ra_of_asc_node": 75.2716,
        "meta_arg_of_pericenter": 190.1287,
        "meta_mean_anomaly": 8.2128,
        "meta_ephemeris_type": 0,
        "meta_classification_type": "U",
        "meta_norad_cat_id": 27513,
        "meta_element_set_no": 999,
        "meta_rev_at_epoch": 8512,
        "meta_bstar": 0,
        "meta_mean_motion_dot": 1.4e-07,
        "meta_mean_motion_ddot": 0,
        "tle_line1": "1 27513U 02041A   25343.36422865  .00000014  00000+0  00000+0 0  9991",
        "tle_line2": "2 27513   5.3202  75.2716 0006101 190.1287   8.2128  1.00270946 85122"
      },
      "geometry": {
        "type": "Point",
        "coordinates": [
          37.15162296963876,
          -3.276690809409958
        ]
      }
    }
  ]
}